[{"OBJECT_NAME":"STARLETTE","OBJECT_ID":"1975-010A","EPOCH":"2026-03-28T09:54:15.787008","MEAN_MOTION":13.82349309,"ECCENTRICITY":0.02056274,"INCLINATION":49.8237,"RA_OF_ASC_NODE":63.4217,"ARG_OF_PERICENTER":156.1956,"MEAN_ANOMALY":204.8613,"EPHEMERIS_TYPE":0,"CLASSIFICATION_TYPE":"U","NORAD_CAT_ID":7646,"ELEMENT_SET_NO":999,"REV_AT_EPOCH":58336,"BSTAR":-3.250662e-6,"MEAN_MOTION_DOT":-1.48e-6,"MEAN_MOTION_DDOT":0},{"OBJECT_NAME":"LAGEOS 1","OBJECT_ID":"1976-039A","EPOCH":"2026-03-28T10:32:44.490048","MEAN_MOTION":6.38664795,"ECCENTRICITY":0.0044667,"INCLINATION":109.8125,"RA_OF_ASC_NODE":151.7023,"ARG_OF_PERICENTER":319.5662,"MEAN_ANOMALY":61.3227,"EPHEMERIS_TYPE":0,"CLASSIFICATION_TYPE":"U","NORAD_CAT_ID":8820,"ELEMENT_SET_NO":999,"REV_AT_EPOCH":90798,"BSTAR":0,"MEAN_MOTION_DOT":-2.0e-8,"MEAN_MOTION_DDOT":0},{"OBJECT_NAME":"AJISAI (EGS)","OBJECT_ID":"1986-061A","EPOCH":"2026-03-28T14:38:56.172768","MEAN_MOTION":12.44515628,"ECCENTRICITY":0.00113315,"INCLINATION":50.0112,"RA_OF_ASC_NODE":35.1652,"ARG_OF_PERICENTER":335.7889,"MEAN_ANOMALY":195.5275,"EPHEMERIS_TYPE":0,"CLASSIFICATION_TYPE":"U","NORAD_CAT_ID":16908,"ELEMENT_SET_NO":999,"REV_AT_EPOCH":47035,"BSTAR":-1.1735866e-5,"MEAN_MOTION_DOT":-9.9e-7,"MEAN_MOTION_DDOT":0},{"OBJECT_NAME":"COSMOS 1989 (ETALON 1)","OBJECT_ID":"1989-001C","EPOCH":"2026-03-27T21:01:47.902368","MEAN_MOTION":2.13155945,"ECCENTRICITY":0.00233831,"INCLINATION":64.8996,"RA_OF_ASC_NODE":74.9746,"ARG_OF_PERICENTER":217.6499,"MEAN_ANOMALY":352.6323,"EPHEMERIS_TYPE":0,"CLASSIFICATION_TYPE":"U","NORAD_CAT_ID":19751,"ELEMENT_SET_NO":999,"REV_AT_EPOCH":28963,"BSTAR":0,"MEAN_MOTION_DOT":4.2e-7,"MEAN_MOTION_DDOT":0},{"OBJECT_NAME":"COSMOS 2024 (ETALON 2)","OBJECT_ID":"1989-039C","EPOCH":"2026-03-27T21:34:04.166112","MEAN_MOTION":2.13204505,"ECCENTRICITY":0.00204894,"INCLINATION":64.9833,"RA_OF_ASC_NODE":313.3373,"ARG_OF_PERICENTER":213.1562,"MEAN_ANOMALY":157.8289,"EPHEMERIS_TYPE":0,"CLASSIFICATION_TYPE":"U","NORAD_CAT_ID":20026,"ELEMENT_SET_NO":999,"REV_AT_EPOCH":28677,"BSTAR":0,"MEAN_MOTION_DOT":-2.0e-7,"MEAN_MOTION_DDOT":0},{"OBJECT_NAME":"LAGEOS 2","OBJECT_ID":"1992-070B","EPOCH":"2026-03-20T02:10:27.910848","MEAN_MOTION":6.47293426,"ECCENTRICITY":0.0137714,"INCLINATION":52.6746,"RA_OF_ASC_NODE":322.9737,"ARG_OF_PERICENTER":148.3602,"MEAN_ANOMALY":4.1736,"EPHEMERIS_TYPE":0,"CLASSIFICATION_TYPE":"U","NORAD_CAT_ID":22195,"ELEMENT_SET_NO":999,"REV_AT_EPOCH":78965,"BSTAR":0,"MEAN_MOTION_DOT":-9.0e-8,"MEAN_MOTION_DDOT":0},{"OBJECT_NAME":"STELLA","OBJECT_ID":"1993-061B","EPOCH":"2026-03-28T14:14:23.730144","MEAN_MOTION":14.27468091,"ECCENTRICITY":0.00074262,"INCLINATION":98.7802,"RA_OF_ASC_NODE":151.5281,"ARG_OF_PERICENTER":108.7935,"MEAN_ANOMALY":359.627,"EPHEMERIS_TYPE":0,"CLASSIFICATION_TYPE":"U","NORAD_CAT_ID":22824,"ELEMENT_SET_NO":999,"REV_AT_EPOCH":69327,"BSTAR":3.695794e-6,"MEAN_MOTION_DOT":-3.6e-7,"MEAN_MOTION_DDOT":0},{"OBJECT_NAME":"LARETS","OBJECT_ID":"2003-042F","EPOCH":"2026-03-28T14:17:48.756480","MEAN_MOTION":14.63853186,"ECCENTRICITY":0.00111043,"INCLINATION":98.4054,"RA_OF_ASC_NODE":248.1486,"ARG_OF_PERICENTER":289.7541,"MEAN_ANOMALY":70.2463,"EPHEMERIS_TYPE":0,"CLASSIFICATION_TYPE":"U","NORAD_CAT_ID":27944,"ELEMENT_SET_NO":999,"REV_AT_EPOCH":20157,"BSTAR":2.5992306e-5,"MEAN_MOTION_DOT":8.5e-7,"MEAN_MOTION_DDOT":0},{"OBJECT_NAME":"LARES","OBJECT_ID":"2012-006A","EPOCH":"2026-03-28T11:21:45.724896","MEAN_MOTION":12.54932181,"ECCENTRICITY":0.0006764,"INCLINATION":69.4886,"RA_OF_ASC_NODE":70.1103,"ARG_OF_PERICENTER":128.323,"MEAN_ANOMALY":231.8405,"EPHEMERIS_TYPE":0,"CLASSIFICATION_TYPE":"U","NORAD_CAT_ID":38077,"ELEMENT_SET_NO":999,"REV_AT_EPOCH":64694,"BSTAR":-9.0912e-5,"MEAN_MOTION_DOT":-5.3e-7,"MEAN_MOTION_DDOT":0},{"OBJECT_NAME":"LARES-2","OBJECT_ID":"2022-080A","EPOCH":"2026-03-21T01:11:34.239840","MEAN_MOTION":6.38964821,"ECCENTRICITY":0.00054116,"INCLINATION":70.1732,"RA_OF_ASC_NODE":335.5553,"ARG_OF_PERICENTER":4.6462,"MEAN_ANOMALY":355.4347,"EPHEMERIS_TYPE":0,"CLASSIFICATION_TYPE":"U","NORAD_CAT_ID":53105,"ELEMENT_SET_NO":999,"REV_AT_EPOCH":8603,"BSTAR":0,"MEAN_MOTION_DOT":-1.5e-7,"MEAN_MOTION_DDOT":0}]
