STARLETTE               
1 07646U 75010A   26087.41268272 -.00000148  00000+0 -32507-5 0  9997
2 07646  49.8237  63.4217 0205627 156.1956 204.8613 13.82349309583367
LAGEOS 1                
1 08820U 76039A   26087.43940382 -.00000002  00000+0  00000+0 0  9990
2 08820 109.8125 151.7023 0044667 319.5662  61.3227  6.38664795907982
AJISAI (EGS)            
1 16908U 86061A   26087.61037237 -.00000099  00000+0 -11736-4 0  9998
2 16908  50.0112  35.1652 0011331 335.7889 195.5275 12.44515628470350
COSMOS 1989 (ETALON 1)  
1 19751U 89001C   26086.87624887  .00000042  00000+0  00000+0 0  9997
2 19751  64.8996  74.9746 0023383 217.6499 352.6323  2.13155945289638
COSMOS 2024 (ETALON 2)  
1 20026U 89039C   26086.89865933 -.00000020  00000+0  00000+0 0  9993
2 20026  64.9833 313.3373 0020489 213.1562 157.8289  2.13204505286773
LAGEOS 2                
1 22195U 92070B   26079.09060082 -.00000009  00000+0  00000+0 0  9994
2 22195  52.6746 322.9737 0137714 148.3602   4.1736  6.47293426789650
STELLA                  
1 22824U 93061B   26087.59333021 -.00000036  00000+0  36958-5 0  9991
2 22824  98.7802 151.5281 0007426 108.7935 359.6270 14.27468091693270
LARETS                  
1 27944U 03042F   26087.59570320  .00000085  00000+0  25992-4 0  9992
2 27944  98.4054 248.1486 0011104 289.7541  70.2463 14.63853186201576
LARES                   
1 38077U 12006A   26087.47344589 -.00000053  00000+0 -90912-4 0  9995
2 38077  69.4886  70.1103 0006764 128.3230 231.8405 12.54932181646940
LARES-2                 
1 53105U 22080A   26080.04970185 -.00000015  00000+0  00000+0 0  9991
2 53105  70.1732 335.5553 0005411   4.6462 355.4347  6.38964821 86033
